STARLINK-1302
1 15375C 20019R   21326.16599319 -.00005603  00000-0 -37541-3 0  3266
2 15375  53.0554   8.0055 0001510  64.8130  93.2270 15.06402114    13
